TK-2                    
1 52150U 22031A   22113.56287924  .00001759  00000+0  18544-3 0  9999
2 52150  97.7985 286.6762 0013863 173.9727 186.1661 14.90527539  3742
PUJIANG 2 (PJ-2)        
1 52151U 22031B   22113.56012978  .00000493  00000+0  55945-4 0  9996
2 52151  97.7854 286.6442 0012659 178.7443 181.3823 14.90688244  3741
CZ-6A R/B               
1 52152U 22031C   22113.51255071  .00001054  00000+0  94921-4 0  9996
2 52152  97.7862 286.8350 0027062 282.0480  77.7709 14.97535960  3750
2022-032A               
1 52153U 22032A   22113.58791259  .00001412  00000+0  15154-3 0  9996
2 52153  97.7941 163.4314 0012029 174.6246 185.5087 14.90123542  3649
2022-032C               
1 52155U 22032C   22113.62939948  .00001239  00000+0  12811-3 0  9996
2 52155  97.8005 163.5505 0015789 203.6412 156.4132 14.91828683  3658
2022-032D               
1 52156U 22032D   22113.56156807  .00001665  00000+0  16998-3 0  9998
2 52156  97.7871 163.4449 0015928 203.9850 156.0636 14.91897528  3658
OMNI-L1                 
1 52157U 22033A   22113.17464870  .00001233  00000+0  19358-3 0  9993
2 52157  97.9477 196.0924 0013367 182.2941 177.8208 14.74301258  3172
GNOMES-3                
1 52158U 22033B   22113.23447302  .00001502  00000+0  23131-3 0  9995
2 52158  97.9486 196.1722 0012694 192.6218 167.4675 14.74857547  3185
2022-033C               
1 52159U 22033C   22113.23083822  .00000556  00000+0  90229-4 0  9990
2 52159  97.9774 196.2297 0007473 203.0237 157.0638 14.74984843  3185
ALFACRUX                
1 52160U 22033D   22112.45947376  .00010493  00000+0  48178-3 0  9994
2 52160  97.3884 194.9020 0009585 218.8118 141.2430 15.20544659  3162
ARCSAT-1                
1 52161U 22033E   22113.51246960  .00006252  00000+0  28915-3 0  9999
2 52161  97.3868 195.9282 0009437 210.2408 149.8283 15.20464930  3321
LYNK TOWER 1            
1 52162U 22033F   22112.97880318  .00004842  00000+0  22151-3 0  9999
2 52162  97.3863 195.4164 0010240 196.0418 164.0495 15.20952019  3242
ION SCV-005             
1 52163U 22033G   22112.84849886  .00004195  00000+0  19512-3 0  9999
2 52163  97.5636 195.3607 0012214 187.7012 172.4037 15.20459768  3220
SPACEBEE-136            
1 52164U 22033H   22113.17283173  .00017034  00000+0  76004-3 0  9993
2 52164  97.3812 195.6000 0009601 203.1972 156.8832 15.21411662  3275
HAWK-4B                 
1 52165U 22033J   22113.17412228  .00008121  00000+0  36521-3 0  9996
2 52165  97.3863 195.6173 0010215 204.4771 155.5981 15.21330130  3278
SPACEBEE-138            
1 52166U 22033K   22112.44990947  .00014536  00000+0  65049-3 0  9999
2 52166  97.3832 194.8953 0011219 197.6515 162.4333 15.21330318  3160
HAWK-4A                 
1 52167U 22033L   22113.50510367  .00004832  00000+0  22020-3 0  9992
2 52167  97.3824 195.9310 0010153 199.9053 160.1788 15.21080640  3326
NUSAT-23 (ANNIE MAUNDER)
1 52168U 22033M   22112.65205584  .00008037  00000+0  36533-3 0  9995
2 52168  97.3847 195.0874 0009653 202.3204 157.7613 15.20969978  3191
MP42                    
1 52169U 22033N   22113.23606714  .00007541  00000+0  33831-3 0  9998
2 52169  97.3865 195.6885 0012016 199.4394 160.6385 15.21420063  3280
HAWK-4C                 
1 52170U 22033P   22113.50046018  .00004428  00000+0  20218-3 0  9991
2 52170  97.3833 195.9371 0012901 185.8886 174.2200 15.21032931  3323
NUSAT-25 (MARIA TELKES) 
1 52171U 22033Q   22112.83918304  .00008142  00000+0  36208-3 0  9996
2 52171  97.3868 195.3027 0012600 195.7529 164.3317 15.21689053  3225
NUSAT-27 (SALLY RIDE)   
1 52172U 22033R   22113.24394109  .00019312  00000+0  83026-3 0  9995
2 52172  97.3755 195.6837 0011820 187.6380 238.4714 15.22631849  3282
SHAKUNTALA              
1 52173U 22033S   22113.24129794  .00011393  00000+0  50037-3 0  9999
2 52173  97.3897 195.7182 0013132 194.0460 231.8889 15.22009823  3284
2022-033T               
1 52174U 22033T   22113.49031359  .00012561  00000+0  54928-3 0  9997
2 52174  97.3854 195.9511 0013720 187.2722 172.8318 15.22127051  3324
BDSAT                   
1 52175U 22033U   22112.50380840  .00012473  00000+0  54532-3 0  9994
2 52175  97.3880 194.9940 0013874 192.9300 167.1583 15.22134521  3178
SPACEBEE-130            
1 52176U 22033V   22113.17506507  .00018853  00000+0  84423-3 0  9999
2 52176  97.3822 195.5986 0007853 195.3381 164.7618 15.21280555  3257
SPACEBEE-139            
1 52177U 22033W   22113.17624772  .00018368  00000+0  82458-3 0  9992
2 52177  97.3830 195.6018 0010641 200.2865 159.7950 15.21176555  3253
NUSAT-24 (KALPANA CHAW*)
1 52178U 22033X   22113.18796839  .00300685  00000+0  12651-1 0  9990
2 52178  97.4115 195.6506 0014964 168.0636 247.5934 15.21936378  3268
SPACEBEE-129            
1 52179U 22033Y   22113.17696360  .00014478  00000+0  65330-3 0  9994
2 52179  97.3825 195.5977 0009205 202.8865 157.1962 15.21066077  3256
SPACEBEE-134            
1 52180U 22033Z   22113.50487260  .00016717  00000+0  75108-3 0  9992
2 52180  97.3831 195.9235 0009455 201.6192 158.4646 15.21179880  3309
SPACEBEE-131            
1 52181U 22033AA  22113.17660558  .00016248  00000+0  73131-3 0  9992
2 52181  97.3826 195.5986 0009253 204.0684 156.0120 15.21126061  3250
SPACEBEE-128            
1 52182U 22033AB  22112.45326292  .00012616  00000+0  56991-3 0  9997
2 52182  97.3836 194.8926 0009260 204.5322 155.5475 15.21058456  3169
SPACEBEE-133            
1 52183U 22033AC  22112.45278496  .00014963  00000+0  67398-3 0  9990
2 52183  97.3826 194.8899 0009251 206.4628 153.6137 15.21119562  3157
2022-033AD              
1 52184U 22033AD  22113.50733673  .00008154  00000+0  37342-3 0  9992
2 52184  97.3862 195.9305 0009834 197.0399 163.0508 15.20706728  3320
SPACEBEE-132            
1 52185U 22033AE  22112.45180098  .00014957  00000+0  67227-3 0  9996
2 52185  97.3831 194.8937 0008708 218.4525 141.6091 15.21197707  3167
SPACEBEE-137            
1 52186U 22033AF  22113.17562989  .00015796  00000+0  70978-3 0  9999
2 52186  97.3831 195.6021 0009685 202.7915 157.2893 15.21187072  3252
SPACEBEE-135            
1 52187U 22033AG  22113.17535649  .00017399  00000+0  78056-3 0  9999
2 52187  97.3835 195.6039 0009081 199.1387 160.9509 15.21225893  3257
PLANTSAT                
1 52188U 22033AH  22113.49442587  .00011112  00000+0  48595-3 0  9995
2 52188  97.3863 195.9483 0005450 211.8008 148.2900 15.22227285  3277
KSF2 C                  
1 52189U 22033AJ  22113.52755068  .00010709  00000+0  48359-3 0  9990
2 52189  97.3799 195.9444 0010675 193.2531 291.2899 15.21102068  3324
KSF2 D                  
1 52190U 22033AK  22113.59131199  .00010773  00000+0  48644-3 0  9990
2 52190  97.3788 196.0079 0010360 192.3690 281.1482 15.21104219  3334
SUCHAI-3                
1 52191U 22033AL  22113.51042752  .00010776  00000+0  49874-3 0  9998
2 52191  97.3965 195.9362 0011790 175.9120 184.2213 15.20240878  3323
2022-034A               
1 52195U 22034A   22113.62013678  .00172117  00000+0  29723-2 0  9998
2 52195  53.0007 241.9033 0013499   5.0260 355.0886 15.49810851  3268
GLOBAL-18               
1 52196U 22034B   22113.06949657  .00019548  00000+0  41884-3 0  9993
2 52196  53.0042 244.8865 0009723   3.0386 357.0820 15.44751970  3176
GLOBAL-20               
1 52197U 22034C   22113.64437045  .00021192  00000+0  44414-3 0  9991
2 52197  53.0027 242.0619 0011186 350.7056   9.4200 15.45332052  3266
GAOFEN-3 03             
1 52200U 22035A   22113.38821018 -.00000402  00000+0 -10877-3 0  9994
2 52200  98.4168 122.1007 0001676  97.6945 262.4457 14.42206688  2373
CZ-4C R/B               
1 52201U 22035B   22112.89115465  .00000694  00000+0  11281-3 0  9993
2 52201  98.3990 122.2317 0111838   1.1359 359.0079 14.70561577  2333
COSMOS 2554             
1 52202U 22036A   22113.36684629 -.00000051  00000+0  17192-4 0  9997
2 52202  67.1503 312.8830 0007014 264.1041  95.9246 13.96673463  2274
SL-4 R/B                
1 52203U 22036B   22113.00191846  .00152627  89272-5  77971-3 0  9993
2 52203  67.1349 307.1279 0439695  78.1368 286.8721 15.08361853  2334
AXIOM-1                 
1 52204U 22037A   22112.49117863  .00008835  00000+0  16150-3 0  9993
2 52204  51.6430 252.4258 0005225  46.8101  62.2432 15.50191745336544
CHINASAT 6D             
1 52255U 22038A   22106.17739715 -.00000347  00000+0  00000+0 0  9998
2 52255  28.4631  20.6165 7288754 179.6852 183.1434  2.28095705    28
CZ-3B R/B               
1 52256U 22038B   22106.98508792 -.00001057  12175-5  00000+0 0  9998
2 52256  28.4754  20.2913 7219492 179.3584 182.5406  2.38783343    41
DAQI 1                  
1 52257U 22039A   22113.48506851 -.00000352  00000+0 -67365-4 0  9995
2 52257  98.1331  55.2108 0000492 245.5555 114.5525 14.57657656  1124
CZ-4C R/B               
1 52258U 22039B   22113.52611443  .00002894  00000+0  25098-3 0  9992
2 52258  98.1636  55.6821 0140149  37.1218 323.9597 14.90635386  1155
SZ-13 MODULE            
1 52260U 21092C   22112.69156328  .00027885  00000+0  28065-3 0  9990
2 52260  41.4805 196.2598 0007297  82.5654 277.6015 15.64760237   654
